GPS BIIA-10 (PRN 32)    
1 20959U 90103A   09117.73234840 -.00000019  00000-0  10000-3 0  2300
2 20959  55.2606 285.0150 0135484 292.4571  66.0833  2.00573566134892
GPS BIIA-11 (PRN 24)    
1 21552U 91047A   09117.93647603  .00000015  00000-0  10000-3 0  2603
2 21552  54.4794 223.0231 0069284 322.0725  37.4630  2.00562885130488
GPS BIIA-12 (PRN 25)    
1 21890U 92009A   09117.94069521 -.00000058  00000-0  10000-3 0  2579
2 21890  55.5381  34.7259 0118520 290.5517  68.1980  2.00565751125860
GPS BIIA-14 (PRN 26)    
1 22014U 92039A   09117.58027547 -.00000064  00000-0  10000-3 0   860
2 22014  56.8900 343.2615 0201272  56.8813 305.0821  2.00424742116628
GPS BIIA-15 (PRN 27)    
1 22108U 92058A   09117.11813470 -.00000055  00000-0  10000-3 0   570
2 22108  55.8064  36.8349 0212168 267.3689  90.2237  2.00396026121798
GPS BIIA-21 (PRN 09)    
1 22700U 93042A   09117.16505995 -.00000053  00000-0  10000-3 0  4243
2 22700  55.9181  38.2121 0201607  84.3643 277.9356  2.00567915115958
GPS BIIA-23 (PRN 04)    
1 22877U 93068A   09118.29576176  .00000013  00000-0  10000-3 0  7338
2 22877  53.8973 220.4350 0084856  26.4551 334.0045  2.00556896113626
GPS BIIA-24 (PRN 06)    
1 23027U 94016A   09117.50413785  .00000063  00000-0  10000-3 0  7503
2 23027  53.5001 157.5295 0061168 279.4292  79.9584  2.00559239110910
GPS BIIA-25 (PRN 03)    
1 23833U 96019A   09117.52160778  .00000064  00000-0  10000-3 0  9374
2 23833  53.0720 153.6714 0116142  51.0034 310.0999  2.00554499 95893
GPS BIIA-26 (PRN 10)    
1 23953U 96041A   09117.44386035 -.00000018  00000-0  10000-3 0  3913
2 23953  54.9364 281.5368 0085420  34.5280 325.9890  2.00574618 93684
GPS BIIA-27 (PRN 30)    
1 24320U 96056A   09117.29536597  .00000038  00000-0  10000-3 0  1280
2 24320  54.5331  97.7263 0110359  81.0080 280.2245  2.00570455 92343
GPS BIIR-02 (PRN 13)    
1 24876U 97035A   09117.88891393 -.00000065  00000-0  10000-3 0  9006
2 24876  57.0117 343.3822 0037818  88.2380 272.2437  2.00558275 86220
GPS BIIA-28 (PRN 08)    
1 25030U 97067A   09118.01983841 -.00000045  00000-0  10000-3 0  8119
2 25030  56.6223  43.5622 0104547 172.7652 187.3955  2.00565385 84126
GPS BIIR-03 (PRN 11)    
1 25933U 99055A   09118.15918638  .00000017  00000-0  10000-3 0  3716
2 25933  50.9704 208.0053 0091532  39.1459 321.5637  2.00562011 70043
GPS BIIR-04 (PRN 20)    
1 26360U 00025A   09117.26322679 -.00000018  00000-0  10000-3 0  4651
2 26360  54.0026 278.7990 0037867  76.8160 283.5791  2.00568621 65722
GPS BIIR-05 (PRN 28)    
1 26407U 00040A   09118.10060468  .00000045  00000-0  10000-3 0  4120
2 26407  55.3721 101.8426 0150759 244.2315 114.1918  2.00567120 64417
GPS BIIR-06 (PRN 14)    
1 26605U 00071A   09117.69958272 -.00000064  00000-0  10000-3 0  4162
2 26605  56.6417 342.2829 0045589 240.0335 119.5655  2.00573618 62000
GPS BIIR-07 (PRN 18)    
1 26690U 01004A   09117.57355584 -.00000020  00000-0  10000-3 0  3045
2 26690  54.0221 281.8680 0103315 221.9799 137.1957  2.00573175 60418
GPS BIIR-08 (PRN 16)    
1 27663U 03005A   09117.92397143  .00000044  00000-0  10000-3 0  6672
2 27663  55.4766 101.3771 0054477 337.3793  22.3607  2.00548985 45775
GPS BIIR-09 (PRN 21)    
1 27704U 03010A   09117.48533098  .00000017  00000-0  10000-3 0  5664
2 27704  53.5262 221.2306 0151436 210.9922 148.1377  2.00568572 44550
GPS BIIR-10 (PRN 22)    
1 28129U 03058A   09117.61222165 -.00000021  00000-0  10000-3 0  1845
2 28129  53.8873 282.1956 0050979 254.6509 104.7583  2.00564803 39268
GPS BIIR-11 (PRN 19)    
1 28190U 04009A   09118.06063174  .00000056  00000-0  10000-3 0  1233
2 28190  54.8579 164.3026 0054848 336.6920  23.1403  2.00573453 37440
GPS BIIR-12 (PRN 23)    
1 28361U 04023A   09117.34779497 -.00000064  00000-0  10000-3 0  9486
2 28361  55.6090 340.4639 0058893 167.3538 192.8395  2.00569858 35516
GPS BIIR-13 (PRN 02)    
1 28474U 04045A   09117.84080552  .00000017  00000-0  10000-3 0  8269
2 28474  53.9439 219.3963 0089608 160.8833 199.4842  2.00567080 32889
GPS BIIRM-1 (PRN 17)    
1 28874U 05038A   09117.19463509  .00000068  00000-0  10000-3 0   843
2 28874  54.9894 161.1193 0044841 209.4424 150.3841  2.00564501 26292
GPS BIIRM-2 (PRN 31)    
1 29486U 06042A   09116.80602821 -.00000052  00000-0  10000-3 0  4431
2 29486  55.7179  40.0576 0073331 293.4193  65.8103  2.00562577 18988
GPS BIIRM-3 (PRN 12)    
1 29601U 06052A   09118.25244357  .00000043  00000-0  10000-3 0  4695
2 29601  55.3909 100.3971 0035057 313.9960  45.7029  2.00562991 17923
GPS BIIRM-4 (PRN 15)    
1 32260U 07047A   09117.05370427 -.00000064  00000-0  00000+0 0  2406
2 32260  54.8118 339.3567 0015688 322.7745  37.1594  2.00572061 11291
GPS BIIRM-5 (PRN 29)    
1 32384U 07062A   09117.38272505  .00000065  00000-0  10000-3 0  2689
2 32384  54.9987 161.5817 0036583 283.9505  75.7309  2.00559964 10024
GPS BIIRM-6 (PRN 07)    
1 32711U 08012A   09117.97076493 -.00000051  00000-0  10000-3 0  1575
2 32711  55.4068  40.1418 0023621 172.0360 188.0095  2.00563842  8240
GPS BIIRM-7 (PRN 01)    
1 34661U 09014A   09117.29094932  .00000041  00000-0  10000-3 0   439
2 34661  55.0402  99.7549 0030545  48.9664 311.2811  2.00552023   742
